{
  "type": "FeatureCollection",
  "features": [
    {
      "type": "Feature",
      "properties": {
        "norad_id": 66718,
        "name": "FLOCK 4H-15",
        "group": "last-30-days",
        "lat": -60.672268613118774,
        "lon": -125.38533263372562,
        "alt_km": 519.943001990403,
        "timestamp": "2025-12-22T11:33:19.154449+00:00",
        "meta_object_name": "FLOCK 4H-15",
        "meta_object_id": "2025-276BE",
        "meta_epoch": "2025-12-22T04:09:42.757056",
        "meta_mean_motion": 15.17097083,
        "meta_eccentricity": 0.0003104,
        "meta_inclination": 97.4425,
        "meta_ra_of_asc_node": 67.7671,
        "meta_arg_of_pericenter": 273.1436,
        "meta_mean_anomaly": 86.9442,
        "meta_ephemeris_type": 0,
        "meta_classification_type": "U",
        "meta_norad_cat_id": 66718,
        "meta_element_set_no": 999,
        "meta_rev_at_epoch": 355,
        "meta_bstar": 0.00051937,
        "meta_mean_motion_dot": 0.00010232,
        "meta_mean_motion_ddot": 0,
        "tle_line1": "1 66718U 25276BE  25356.17341154  .00010232  00000+0  51937-3 0  9992",
        "tle_line2": "2 66718  97.4425  67.7671 0003104 273.1436  86.9442 15.17097083  3556"
      },
      "geometry": {
        "type": "Point",
        "coordinates": [
          -125.38533263372562,
          -60.672268613118774
        ]
      }
    },
    {
      "type": "Feature",
      "properties": {
        "norad_id": 66719,
        "name": "FLOCK 4H-16",
        "group": "last-30-days",
        "lat": -69.25802616254646,
        "lon": -132.1174334527207,
        "alt_km": 519.3540227970507,
        "timestamp": "2025-12-22T11:33:19.154483+00:00",
        "meta_object_name": "FLOCK 4H-16",
        "meta_object_id": "2025-276BF",
        "meta_epoch": "2025-12-22T04:00:01.998720",
        "meta_mean_motion": 15.17187061,
        "meta_eccentricity": 0.0003191,
        "meta_inclination": 97.4437,
        "meta_ra_of_asc_node": 67.7697,
        "meta_arg_of_pericenter": 257.5445,
        "meta_mean_anomaly": 74.7789,
        "meta_ephemeris_type": 0,
        "meta_classification_type": "U",
        "meta_norad_cat_id": 66719,
        "meta_element_set_no": 999,
        "meta_rev_at_epoch": 297,
        "meta_bstar": 0.002486,
        "meta_mean_motion_dot": 0.0004962,
        "meta_mean_motion_ddot": 0,
        "tle_line1": "1 66719U 25276BF  25356.16668980  .00049620  00000+0  24860-2 0  9998",
        "tle_line2": "2 66719  97.4437  67.7697 0003191 257.5445  74.7789 15.17187061  2970"
      },
      "geometry": {
        "type": "Point",
        "coordinates": [
          -132.1174334527207,
          -69.25802616254646
        ]
      }
    },
    {
      "type": "Feature",
      "properties": {
        "norad_id": 66720,
        "name": "FLOCK 4H-17",
        "group": "last-30-days",
        "lat": -39.955536597433,
        "lon": 74.39950595663355,
        "alt_km": 519.3767355865984,
        "timestamp": "2025-12-22T11:33:19.154493+00:00",
        "meta_object_name": "FLOCK 4H-17",
        "meta_object_id": "2025-276BG",
        "meta_epoch": "2025-12-22T03:49:22.681056",
        "meta_mean_motion": 15.18048733,
        "meta_eccentricity": 0.0002659,
        "meta_inclination": 97.4445,
        "meta_ra_of_asc_node": 67.7934,
        "meta_arg_of_pericenter": 194.7446,
        "meta_mean_anomaly": 165.371,
        "meta_ephemeris_type": 0,
        "meta_classification_type": "U",
        "meta_norad_cat_id": 66720,
        "meta_element_set_no": 999,
        "meta_rev_at_epoch": 355,
        "meta_bstar": 0.00044581,
        "meta_mean_motion_dot": 9.015e-05,
        "meta_mean_motion_ddot": 0,
        "tle_line1": "1 66720U 25276BG  25356.15929029  .00009015  00000+0  44581-3 0  9990",
        "tle_line2": "2 66720  97.4445  67.7934 0002659 194.7446 165.3710 15.18048733  3555"
      },
      "geometry": {
        "type": "Point",
        "coordinates": [
          74.39950595663355,
          -39.955536597433
        ]
      }
    },
    {
      "type": "Feature",
      "properties": {
        "norad_id": 66721,
        "name": "FLOCK 4H-18",
        "group": "last-30-days",
        "lat": -63.458117163276924,
        "lon": -127.10659106581801,
        "alt_km": 520.4474730921347,
        "timestamp": "2025-12-22T11:33:19.154503+00:00",
        "meta_object_name": "FLOCK 4H-18",
        "meta_object_id": "2025-276BH",
        "meta_epoch": "2025-12-22T04:08:57.465312",
        "meta_mean_motion": 15.17130248,
        "meta_eccentricity": 0.0002503,
        "meta_inclination": 97.4385,
        "meta_ra_of_asc_node": 67.7536,
        "meta_arg_of_pericenter": 287.3973,
        "meta_mean_anomaly": 72.6986,
        "meta_ephemeris_type": 0,
        "meta_classification_type": "U",
        "meta_norad_cat_id": 66721,
        "meta_element_set_no": 999,
        "meta_rev_at_epoch": 355,
        "meta_bstar": 0.00041212,
        "meta_mean_motion_dot": 8.111e-05,
        "meta_mean_motion_ddot": 0,
        "tle_line1": "1 66721U 25276BH  25356.17288733  .00008111  00000+0  41212-3 0  9997",
        "tle_line2": "2 66721  97.4385  67.7536 0002503 287.3973  72.6986 15.17130248  3556"
      },
      "geometry": {
        "type": "Point",
        "coordinates": [
          -127.10659106581801,
          -63.458117163276924
        ]
      }
    },
    {
      "type": "Feature",
      "properties": {
        "norad_id": 66722,
        "name": "FLOCK 4H-19",
        "group": "last-30-days",
        "lat": -24.944603507081528,
        "lon": 71.58052125385476,
        "alt_km": 518.3441637887772,
        "timestamp": "2025-12-22T11:33:19.154513+00:00",
        "meta_object_name": "FLOCK 4H-19",
        "meta_object_id": "2025-276BJ",
        "meta_epoch": "2025-12-22T02:10:30.660096",
        "meta_mean_motion": 15.18219987,
        "meta_eccentricity": 0.0002145,
        "meta_inclination": 97.4395,
        "meta_ra_of_asc_node": 67.7117,
        "meta_arg_of_pericenter": 158.4753,
        "meta_mean_anomaly": 201.6571,
        "meta_ephemeris_type": 0,
        "meta_classification_type": "U",
        "meta_norad_cat_id": 66722,
        "meta_element_set_no": 999,
        "meta_rev_at_epoch": 283,
        "meta_bstar": 0.00060535,
        "meta_mean_motion_dot": 0.00012331,
        "meta_mean_motion_ddot": 0,
        "tle_line1": "1 66722U 25276BJ  25356.09063264  .00012331  00000+0  60535-3 0  9997",
        "tle_line2": "2 66722  97.4395  67.7117 0002145 158.4753 201.6571 15.18219987  2832"
      },
      "geometry": {
        "type": "Point",
        "coordinates": [
          71.58052125385476,
          -24.944603507081528
        ]
      }
    },
    {
      "type": "Feature",
      "properties": {
        "norad_id": 66723,
        "name": "FLOCK 4H-20",
        "group": "last-30-days",
        "lat": -21.675529288263295,
        "lon": 71.08837534609386,
        "alt_km": 518.2614659037572,
        "timestamp": "2025-12-22T11:33:19.154523+00:00",
        "meta_object_name": "FLOCK 4H-20",
        "meta_object_id": "2025-276BK",
        "meta_epoch": "2025-12-22T02:09:39.890592",
        "meta_mean_motion": 15.18286405,
        "meta_eccentricity": 0.0002779,
        "meta_inclination": 97.4422,
        "meta_ra_of_asc_node": 67.7252,
        "meta_arg_of_pericenter": 174.0042,
        "meta_mean_anomaly": 186.1225,
        "meta_ephemeris_type": 0,
        "meta_classification_type": "U",
        "meta_norad_cat_id": 66723,
        "meta_element_set_no": 999,
        "meta_rev_at_epoch": 279,
        "meta_bstar": 0.00059092,
        "meta_mean_motion_dot": 0.00012058,
        "meta_mean_motion_ddot": 0,
        "tle_line1": "1 66723U 25276BK  25356.09004503  .00012058  00000+0  59092-3 0  9991",
        "tle_line2": "2 66723  97.4422  67.7252 0002779 174.0042 186.1225 15.18286405  2799"
      },
      "geometry": {
        "type": "Point",
        "coordinates": [
          71.08837534609386,
          -21.675529288263295
        ]
      }
    },
    {
      "type": "Feature",
      "properties": {
        "norad_id": 66724,
        "name": "FLOCK 4H-21",
        "group": "last-30-days",
        "lat": -18.832588065856942,
        "lon": 70.6524986613607,
        "alt_km": 517.6407365153773,
        "timestamp": "2025-12-22T11:33:19.154537+00:00",
        "meta_object_name": "FLOCK 4H-21",
        "meta_object_id": "2025-276BL",
        "meta_epoch": "2025-12-22T02:08:55.741056",
        "meta_mean_motion": 15.18345613,
        "meta_eccentricity": 0.0002438,
        "meta_inclination": 97.439,
        "meta_ra_of_asc_node": 67.7129,
        "meta_arg_of_pericenter": 171.3161,
        "meta_mean_anomaly": 188.8116,
        "meta_ephemeris_type": 0,
        "meta_classification_type": "U",
        "meta_norad_cat_id": 66724,
        "meta_element_set_no": 999,
        "meta_rev_at_epoch": 279,
        "meta_bstar": 0.00062333,
        "meta_mean_motion_dot": 0.00012746,
        "meta_mean_motion_ddot": 0,
        "tle_line1": "1 66724U 25276BL  25356.08953404  .00012746  00000+0  62333-3 0  9990",
        "tle_line2": "2 66724  97.4390  67.7129 0002438 171.3161 188.8116 15.18345613  2796"
      },
      "geometry": {
        "type": "Point",
        "coordinates": [
          70.6524986613607,
          -18.832588065856942
        ]
      }
    }
  ]
}